2023-085H               
1 57011U 23085H   25340.60183505  .00128237  00000+0  16802-2 0  9995
2 57011  97.4761  95.7130 0003623 313.6493  46.4462 15.58136389137958
2023-085J               
1 57012U 23085J   25340.53691078  .00024938  00000+0  91578-3 0  9994
2 57012  97.4862  86.1287 0006959  11.5256 348.6141 15.27900543137288
2023-085K               
1 57013U 23085K   25340.61081851  .00288233  00000+0  18645-2 0  9999
2 57013  97.4733  99.4509 0004154 297.1236  62.9605 15.75237590 68399
2023-085L               
1 57014U 23085L   25340.54063421  .00022823  00000+0  89314-3 0  9998
2 57014  97.4898  85.0796 0005497  19.4416 340.7031 15.25817363137188
2023-085M               
1 57015U 23085M   25340.18864587  .00309865  00000+0  18433-2 0  9998
2 57015  97.4813 100.2031 0004287 300.6054  59.4788 15.77101230138154
2023-085P               
1 57017U 23085P   25340.57072767  .00165301  00000+0  17090-2 0  9997
2 57017  97.4786  97.5774 0003640 301.5439  58.5464 15.64203112138054
2023-085R               
1 57019U 23085R   25340.59146470  .00220080  00000+0  17527-2 0  9995
2 57019  97.4760  98.4959 0004734 302.4233  57.6571 15.70508734138133
2023-085V               
1 57023U 23085V   25340.57982165  .00025122  00000+0  94124-3 0  9996
2 57023  97.4879  85.5014 0007087  40.3020 319.8743 15.27234648137230
2023-085Y               
1 57026U 23085Y   25340.52041453  .00027023  00000+0  96715-3 0  9990
2 57026  97.4880  86.6490 0006649  37.8001 322.3705 15.28731447137314
2023-085AD              
1 57031U 23085AD  25340.57039191  .00025629  00000+0  93400-3 0  9995
2 57031  97.4874  86.2024 0010689  48.0680 312.1469 15.28114577137298
2023-085AF              
1 57033U 23085AF  25340.50146232  .00113925  00000+0  13414-2 0  9998
2 57033  97.4850  99.1943 0004494 321.1973  38.8961 15.61011106138138
2023-085AJ              
1 57036U 23085AJ  25340.57496270  .00015426  00000+0  71022-3 0  9995
2 57036  97.4842  82.2397 0009746  39.2269 320.9670 15.20357924137034
2023-085AK              
1 57037U 23085AK  25340.56486774  .00015682  00000+0  72099-3 0  9992
2 57037  97.4839  82.1147 0009445  57.8200 302.3950 15.20404361137022
2023-085AL              
1 57038U 23085AL  25340.54108542  .00025534  00000+0  92886-3 0  9998
2 57038  97.4873  85.9202 0008392  49.6621 310.5350 15.28196428137261
2023-085AS              
1 57044U 23085AS  25340.56759025  .00027547  00000+0  96655-3 0  9999
2 57044  97.4846  86.6555 0008947  52.0414 308.1633 15.29359461137335
NUSANTARA TIGA (SATRIA) 
1 57045U 23086A   25339.77336300 -.00000225  00000+0  00000+0 0  9999
2 57045   0.0354 335.0455 0005168 319.8816 204.3043  1.00268845  7823
SHIYAN-25 (SY-25)       
1 57047U 23087A   25340.58535583 -.00043470  26091-5 -79600-4 0  9998
2 57047  96.6170  36.8490 0012520 246.9423 113.0538 16.00907027143982
STARLINK-5850           
1 57049U 23088B   25340.47939590 -.00002215  00000+0 -14900-3 0  9994
2 57049  43.0052 254.3717 0000950 265.1686  94.9047 15.02526970136536
STARLINK-5845           
1 57050U 23088C   25340.46164618 -.00000194  00000+0  69190-6 0  9993
2 57050  43.0037 254.2426 0001499 256.3235 103.7440 15.02539472136344
STARLINK-5839           
1 57051U 23088D   25340.59793981  .00014394  00000+0  10798-2 0  9991
2 57051  43.0033 253.5418 0001529 249.3133 110.7545 15.02486637136367
STARLINK-5860           
1 57052U 23088E   25340.60127822 -.00000320  00000+0 -86495-5 0  9995
2 57052  42.9992 253.5629 0000664 338.8025  21.2790 15.02508092136365
STARLINK-5865           
1 57053U 23088F   25340.45165033 -.00001235  00000+0 -76377-4 0  9998
2 57053  43.0030 254.1623 0001170 267.1944  92.8765 15.02525840136343
STARLINK-5881           
1 57054U 23088G   25340.17463435 -.00002133  00000+0 -14285-3 0  9992
2 57054  43.0026 255.5291 0001469 271.5741  88.4933 15.02542009136300
STARLINK-6237           
1 57055U 23088H   25340.45941592  .00000222  00000+0  31531-4 0  9998
2 57055  43.0035 254.2219 0001085 276.1429  83.9289 15.02535042136342
STARLINK-6353           
1 57056U 23088J   25340.10927391 -.00001249  00000+0 -77389-4 0  9995
2 57056  43.0025 255.8962 0001209 273.2703  86.8001 15.02528715136292
STARLINK-6223           
1 57057U 23088K   25340.17239967  .00001179  00000+0  10233-3 0  9992
2 57057  43.0056 255.4882 0001963 270.1770  89.8847 15.02551933136302
STARLINK-6217           
1 57058U 23088L   25340.17909454  .00002433  00000+0  19523-3 0  9993
2 57058  43.0022 255.5607 0000972 244.3564 115.7178 15.02514161136303
STARLINK-6211           
1 57059U 23088M   25340.13924028  .00003279  00000+0  25776-3 0  9990
2 57059  43.0044 256.1080 0001239 282.7130  77.3574 15.02526421136295
STARLINK-6227           
1 57060U 23088N   25340.47495883 -.00000861  00000+0 -48683-4 0  9990
2 57060  43.0030 254.3293 0001355 261.7467  98.3222 15.02534495136346
STARLINK-5869           
1 57061U 23088P   25340.49481914 -.00000589  00000+0 -28566-4 0  9998
2 57061  43.0062 253.6183 0001082 275.0917  84.9802 15.02529714135372
STARLINK-5536           
1 57062U 23088Q   25340.42638182  .00003281  00000+0  25786-3 0  9993
2 57062  43.0028 240.9485 0001529 261.6479  98.4190 15.02532035136493
STARLINK-5832           
1 57063U 23088R   25340.48815601  .00000578  00000+0  57845-4 0  9991
2 57063  43.0009 253.5688 0001244 267.6328  92.4372 15.02528865136358
STARLINK-5822           
1 57064U 23088S   25340.45830590 -.00000177  00000+0  19417-5 0  9993
2 57064  43.0011 254.2076 0001025 283.5871  76.4857 15.02540487135362
STARLINK-5830           
1 57065U 23088T   25340.47826454  .00000072  00000+0  20376-4 0  9998
2 57065  43.0050 254.3409 0001599 268.9418  91.1241 15.02554212135369
STARLINK-5827           
1 57066U 23088U   25340.49148975 -.00004623  00000+0 -32725-3 0  9994
2 57066  43.0080 253.6032 0001288 262.7621  97.3075 15.02549255135375
STARLINK-5824           
1 57067U 23088V   25340.45497041 -.00006935  00000+0 -49841-3 0  9997
2 57067  43.0031 254.1687 0001064 288.7357  71.3370 15.02566299136345
STARLINK-5844           
1 57068U 23088W   25340.48483092 -.00001701  00000+0 -11093-3 0  9996
2 57068  43.0020 253.5463 0001003 267.9347  92.1381 15.02518032136356
STARLINK-5821           
1 57069U 23088X   25340.07301597  .00004156  00000+0  32256-3 0  9990
2 57069  43.0044 243.4722 0000529 265.4534  94.6248 15.02529652136261
STARLINK-5828           
1 57070U 23088Y   25340.42316263 -.00010071  00000+0 -73058-3 0  9997
2 57070  43.0011 241.8000 0001035 304.4706  55.6039 15.02583261136481
STARLINK-5834           
1 57071U 23088Z   25340.41317722 -.00001552  00000+0 -99830-4 0  9999
2 57071  43.0060 241.7275 0001382 281.0318  79.0369 15.02542356136311
STARLINK-5843           
1 57072U 23088AA  25340.41872642  .00000321  00000+0  38828-4 0  9998
2 57072  42.9982 241.7685 0000702 275.0743  85.0020 15.02538039135502
STARLINK-5838           
1 57073U 23088AB  25340.42205749  .00001164  00000+0  10123-3 0  9991
2 57073  43.0026 241.7970 0001226 279.6546  80.4158 15.02528202135506
STARLINK-5773           
1 57074U 23088AC  25340.48149458  .00000375  00000+0  42819-4 0  9993
2 57074  43.0034 253.5172 0001196 275.4111  84.6595 15.02535560136359
STARLINK-5542           
1 57075U 23088AD  25340.06857314  .00000188  00000+0  29011-4 0  9996
2 57075  43.0033 243.4348 0000953 270.8885  89.1848 15.02535453136430
STARLINK-6155           
1 57076U 23088AE  25340.41650277 -.00002754  00000+0 -18893-3 0  9993
2 57076  43.0020 241.7491 0001166 275.7088  84.3621 15.02522408136312
STARLINK-6194           
1 57077U 23088AF  25340.00765425  .00000461  00000+0  49213-4 0  9993
2 57077  43.0050 243.8407 0000972 271.7999  88.2732 15.02526636136590
STARLINK-6246           
1 57078U 23088AG  25340.56621722  .00001753  00000+0  11534-3 0  9995
2 57078  42.9985 240.2984 0000612 291.9670  68.1110 15.11246699136346
STARLINK-6245           
1 57079U 23088AH  25340.46192450 -.00001353  00000+0 -85172-4 0  9994
2 57079  42.9973 241.2281 0001286  69.8746 290.2234 15.02514748136493
STARLINK-6243           
1 57080U 23088AJ  25340.07745511 -.00017459  00000+0 -12783-2 0  9995
2 57080  43.0064 243.5102 0001155 262.2379  97.8332 15.02601357136269
STARLINK-6184           
1 57081U 23088AK  25340.45857138 -.00000076  00000+0  94676-5 0  9997
2 57081  43.0031 241.2046 0001391 264.4680  95.6004 15.02533816136498
STARLINK-6248           
1 57082U 23088AL  25340.13283917  .00001043  00000+0  92320-4 0  9998
2 57082  43.0051 243.0611 0001449 253.8440 106.2243 15.02522404136449
STARLINK-6253           
1 57083U 23088AM  25340.45079916 -.00000898  00000+0 -51449-4 0  9992
2 57083  43.0042 241.1441 0000814 284.2352  75.8400 15.02529895136497
STARLINK-6240           
1 57084U 23088AN  25340.59262367  .00000746  00000+0  70312-4 0  9992
2 57084  43.0032 240.4921 0001250 264.0893  95.9807 15.02539889136514
STARLINK-6232           
1 57085U 23088AP  25340.44635854 -.00000868  00000+0 -49200-4 0  9991
2 57085  43.0052 241.1118 0000960 277.7046  82.3687 15.02529650136499
STARLINK-6247           
1 57086U 23088AQ  25340.58928371 -.00009994  00000+0 -72490-3 0  9991
2 57086  43.0027 240.4648 0001183 283.5968  76.4743 15.02581301136519
STARLINK-6251           
1 57087U 23088AR  25340.11063398 -.00000568  00000+0 -26974-4 0  9995
2 57087  43.0027 242.8932 0001023 275.4149  84.6577 15.02534875136448
STARLINK-6257           
1 57088U 23088AS  25340.45301146 -.00000363  00000+0 -11808-4 0  9992
2 57088  43.0038 241.1640 0001003 270.0065  90.0662 15.02537266136493
STARLINK-6259           
1 57089U 23088AT  25340.43304124 -.00001688  00000+0 -10990-3 0  9991
2 57089  43.0039 241.0068 0001369 264.8032  95.2654 15.02534648136497
STARLINK-6254           
1 57090U 23088AU  25340.64134454 -.00001039  00000+0 -61839-4 0  9992
2 57090  43.0033 239.9949 0001425 245.9120 114.1574 15.02547029136521
